[{"OBJECT_NAME":"ZHUHAI-1 03E","OBJECT_ID":"2019-060F","EPOCH":"2026-03-09T22:00:09.912096","MEAN_MOTION":15.3740444,"ECCENTRICITY":0.00060218,"INCLINATION":97.5464,"RA_OF_ASC_NODE":215.7681,"ARG_OF_PERICENTER":27.0132,"MEAN_ANOMALY":333.1424,"EPHEMERIS_TYPE":0,"CLASSIFICATION_TYPE":"U","NORAD_CAT_ID":44539,"ELEMENT_SET_NO":999,"REV_AT_EPOCH":36049,"BSTAR":0.00065441196,"MEAN_MOTION_DOT":0.00023971,"MEAN_MOTION_DDOT":0},{"OBJECT_NAME":"STARLINK-30980","OBJECT_ID":"2023-186D","EPOCH":"2026-03-09T22:00:01.999584","MEAN_MOTION":15.20116212,"ECCENTRICITY":0.00019479,"INCLINATION":43.0001,"RA_OF_ASC_NODE":65.8317,"ARG_OF_PERICENTER":252.7855,"MEAN_ANOMALY":340.7673,"EPHEMERIS_TYPE":0,"CLASSIFICATION_TYPE":"U","NORAD_CAT_ID":58476,"ELEMENT_SET_NO":999,"REV_AT_EPOCH":577,"BSTAR":0.096460854,"MEAN_MOTION_DOT":0.02359688,"MEAN_MOTION_DDOT":0}]
